GLOBALSTAR M057         
1 25943U 99058A   25106.58276552 -.00000038  00000+0  49681-3 0  9990
2 25943  51.9967 163.0374 0002668 243.6356 116.4220 12.24817282159386
GLOBALSTAR M059         
1 25944U 99058B   25106.47693157 -.00000008  00000+0  96871-3 0  9993
2 25944  52.0051  14.1177 0000487 119.5037  52.0964 11.99976937566638
GLOBALSTAR M056         
1 25945U 99058C   25106.47360418 -.00000115  00000+0 -31675-3 0  9996
2 25945  51.9995  17.6691 0001638  62.4427 108.7676 12.04778485155189
GLOBALSTAR M031         
1 25946U 99058D   25106.51124431 -.00000001  00000+0  90348-3 0  9990
2 25946  51.9953 273.5933 0001996  74.3731 320.4370 12.16033814157047
GLOBALSTAR M039         
1 25961U 99062A   25106.24597196 -.00000069  00000+0  19190-3 0  9994
2 25961  51.9828  97.3753 0002544 207.6638 152.4093 12.62323396172392
GLOBALSTAR M034         
1 25962U 99062B   25106.61200750 -.00000037  00000+0  70049-3 0  9998
2 25962  51.9852 171.4483 0013911 283.1402 225.5266 11.79446901131127
GLOBALSTAR M029         
1 25963U 99062C   25106.62762579 -.00000077  00000+0  11575-3 0  9995
2 25963  51.9798 261.8012 0002245  15.4702  65.7326 11.99894683161733
GLOBALSTAR M061         
1 25964U 99062D   25106.39706317 -.00000045  00000+0  57033-3 0  9992
2 25964  51.9829 355.2216 0005531 203.0802 328.2752 11.76773276113905
